CCSDS_OMM_VERS = 2.0
CREATION_DATE  = 
ORIGINATOR     = 

OBJECT_NAME    = STARLINK-36673
OBJECT_ID      = 2026-022N
CENTER_NAME    = EARTH
REF_FRAME      = TEME
TIME_SYSTEM    = UTC
MEAN_ELEMENT_THEORY = SGP/SGP4

EPOCH          = 2026-02-23T08:30:59.479776
MEAN_MOTION    = 15.75227047
ECCENTRICITY   = .0002313
INCLINATION    = 97.2841
RA_OF_ASC_NODE = 87.6440
ARG_OF_PERICENTER = 91.0677
MEAN_ANOMALY   = 269.0853

EPHEMERIS_TYPE = 0
CLASSIFICATION_TYPE = U
NORAD_CAT_ID   = 67660
ELEMENT_SET_NO = 999
REV_AT_EPOCH   = 329
BSTAR          = .13438E-2
MEAN_MOTION_DOT = .205549E-2
MEAN_MOTION_DDOT = 0

CCSDS_OMM_VERS = 2.0
CREATION_DATE  = 
ORIGINATOR     = 

OBJECT_NAME    = STARLINK-36674
OBJECT_ID      = 2026-022P
CENTER_NAME    = EARTH
REF_FRAME      = TEME
TIME_SYSTEM    = UTC
MEAN_ELEMENT_THEORY = SGP/SGP4

EPOCH          = 2026-02-23T08:28:57.496800
MEAN_MOTION    = 15.75252681
ECCENTRICITY   = .0002163
INCLINATION    = 97.2842
RA_OF_ASC_NODE = 87.6462
ARG_OF_PERICENTER = 98.3349
MEAN_ANOMALY   = 261.8161

EPHEMERIS_TYPE = 0
CLASSIFICATION_TYPE = U
NORAD_CAT_ID   = 67661
ELEMENT_SET_NO = 999
REV_AT_EPOCH   = 329
BSTAR          = .20802E-2
MEAN_MOTION_DOT = .323046E-2
MEAN_MOTION_DDOT = 0

CCSDS_OMM_VERS = 2.0
CREATION_DATE  = 
ORIGINATOR     = 

OBJECT_NAME    = STARLINK-36700
OBJECT_ID      = 2026-022Q
CENTER_NAME    = EARTH
REF_FRAME      = TEME
TIME_SYSTEM    = UTC
MEAN_ELEMENT_THEORY = SGP/SGP4

EPOCH          = 2026-02-23T08:25:54.339168
MEAN_MOTION    = 15.75298991
ECCENTRICITY   = .0001332
INCLINATION    = 97.2845
RA_OF_ASC_NODE = 87.6491
ARG_OF_PERICENTER = 94.3877
MEAN_ANOMALY   = 265.7541

EPHEMERIS_TYPE = 0
CLASSIFICATION_TYPE = U
NORAD_CAT_ID   = 67662
ELEMENT_SET_NO = 999
REV_AT_EPOCH   = 329
BSTAR          = .23351E-2
MEAN_MOTION_DOT = .365197E-2
MEAN_MOTION_DDOT = 0

CCSDS_OMM_VERS = 2.0
CREATION_DATE  = 
ORIGINATOR     = 

OBJECT_NAME    = STARLINK-36675
OBJECT_ID      = 2026-022R
CENTER_NAME    = EARTH
REF_FRAME      = TEME
TIME_SYSTEM    = UTC
MEAN_ELEMENT_THEORY = SGP/SGP4

EPOCH          = 2026-02-23T00:50:32.157024
MEAN_MOTION    = 15.75296893
ECCENTRICITY   = .00017092
INCLINATION    = 97.2840
RA_OF_ASC_NODE = 87.3139
ARG_OF_PERICENTER = 105.7300
MEAN_ANOMALY   = 254.4154

EPHEMERIS_TYPE = 0
CLASSIFICATION_TYPE = U
NORAD_CAT_ID   = 67663
ELEMENT_SET_NO = 999
REV_AT_EPOCH   = 324
BSTAR          = .19883197E-2
MEAN_MOTION_DOT = .308846E-2
MEAN_MOTION_DDOT = 0

CCSDS_OMM_VERS = 2.0
CREATION_DATE  = 
ORIGINATOR     = 

OBJECT_NAME    = STARLINK-36404
OBJECT_ID      = 2026-022S
CENTER_NAME    = EARTH
REF_FRAME      = TEME
TIME_SYSTEM    = UTC
MEAN_ELEMENT_THEORY = SGP/SGP4

EPOCH          = 2026-02-23T08:23:22.036704
MEAN_MOTION    = 15.75240633
ECCENTRICITY   = .0002605
INCLINATION    = 97.2849
RA_OF_ASC_NODE = 87.6502
ARG_OF_PERICENTER = 93.7245
MEAN_ANOMALY   = 266.4318

EPHEMERIS_TYPE = 0
CLASSIFICATION_TYPE = U
NORAD_CAT_ID   = 67664
ELEMENT_SET_NO = 999
REV_AT_EPOCH   = 329
BSTAR          = .17453E-2
MEAN_MOTION_DOT = .269171E-2
MEAN_MOTION_DDOT = 0

CCSDS_OMM_VERS = 2.0
CREATION_DATE  = 
ORIGINATOR     = 

OBJECT_NAME    = STARLINK-36399
OBJECT_ID      = 2026-022T
CENTER_NAME    = EARTH
REF_FRAME      = TEME
TIME_SYSTEM    = UTC
MEAN_ELEMENT_THEORY = SGP/SGP4

EPOCH          = 2026-02-23T08:22:21.058176
MEAN_MOTION    = 15.75248091
ECCENTRICITY   = .000231
INCLINATION    = 97.2850
RA_OF_ASC_NODE = 87.6515
ARG_OF_PERICENTER = 109.8492
MEAN_ANOMALY   = 250.3022

EPHEMERIS_TYPE = 0
CLASSIFICATION_TYPE = U
NORAD_CAT_ID   = 67665
ELEMENT_SET_NO = 999
REV_AT_EPOCH   = 329
BSTAR          = .18709E-2
MEAN_MOTION_DOT = .289324E-2
MEAN_MOTION_DDOT = 0

CCSDS_OMM_VERS = 2.0
CREATION_DATE  = 
ORIGINATOR     = 

OBJECT_NAME    = STARLINK-36365
OBJECT_ID      = 2026-022U
CENTER_NAME    = EARTH
REF_FRAME      = TEME
TIME_SYSTEM    = UTC
MEAN_ELEMENT_THEORY = SGP/SGP4

EPOCH          = 2026-02-23T00:42:54.958464
MEAN_MOTION    = 15.75301680
ECCENTRICITY   = .0000642
INCLINATION    = 97.2851
RA_OF_ASC_NODE = 87.3204
ARG_OF_PERICENTER = 62.9683
MEAN_ANOMALY   = 297.1648

EPHEMERIS_TYPE = 0
CLASSIFICATION_TYPE = U
NORAD_CAT_ID   = 67666
ELEMENT_SET_NO = 999
REV_AT_EPOCH   = 324
BSTAR          = .20941074E-2
MEAN_MOTION_DOT = .32603E-2
MEAN_MOTION_DDOT = 0

CCSDS_OMM_VERS = 2.0
CREATION_DATE  = 
ORIGINATOR     = 

OBJECT_NAME    = STARLINK-36622
OBJECT_ID      = 2026-022V
CENTER_NAME    = EARTH
REF_FRAME      = TEME
TIME_SYSTEM    = UTC
MEAN_ELEMENT_THEORY = SGP/SGP4

EPOCH          = 2026-02-23T08:17:46.527360
MEAN_MOTION    = 15.75277353
ECCENTRICITY   = .0002673
INCLINATION    = 97.2849
RA_OF_ASC_NODE = 87.6565
ARG_OF_PERICENTER = 95.9198
MEAN_ANOMALY   = 264.2372

EPHEMERIS_TYPE = 0
CLASSIFICATION_TYPE = U
NORAD_CAT_ID   = 67667
ELEMENT_SET_NO = 999
REV_AT_EPOCH   = 329
BSTAR          = .19006E-2
MEAN_MOTION_DOT = .294476E-2
MEAN_MOTION_DDOT = 0

CCSDS_OMM_VERS = 2.0
CREATION_DATE  = 
ORIGINATOR     = 

OBJECT_NAME    = STARLINK-36625
OBJECT_ID      = 2026-022W
CENTER_NAME    = EARTH
REF_FRAME      = TEME
TIME_SYSTEM    = UTC
MEAN_ELEMENT_THEORY = SGP/SGP4

EPOCH          = 2026-02-23T02:09:49.127616
MEAN_MOTION    = 15.75193324
ECCENTRICITY   = .00018193
INCLINATION    = 97.2854
RA_OF_ASC_NODE = 87.3909
ARG_OF_PERICENTER = 98.2779
MEAN_ANOMALY   = 261.8693

EPHEMERIS_TYPE = 0
CLASSIFICATION_TYPE = U
NORAD_CAT_ID   = 67668
ELEMENT_SET_NO = 999
REV_AT_EPOCH   = 325
BSTAR          = .27591845E-3
MEAN_MOTION_DOT = .41232E-3
MEAN_MOTION_DDOT = 0

CCSDS_OMM_VERS = 2.0
CREATION_DATE  = 
ORIGINATOR     = 

OBJECT_NAME    = STARLINK-36639
OBJECT_ID      = 2026-022X
CENTER_NAME    = EARTH
REF_FRAME      = TEME
TIME_SYSTEM    = UTC
MEAN_ELEMENT_THEORY = SGP/SGP4

EPOCH          = 2026-02-23T02:07:16.648896
MEAN_MOTION    = 15.75223051
ECCENTRICITY   = .00020276
INCLINATION    = 97.2856
RA_OF_ASC_NODE = 87.3937
ARG_OF_PERICENTER = 110.9556
MEAN_ANOMALY   = 249.1926

EPHEMERIS_TYPE = 0
CLASSIFICATION_TYPE = U
NORAD_CAT_ID   = 67669
ELEMENT_SET_NO = 999
REV_AT_EPOCH   = 325
BSTAR          = .64533921E-3
MEAN_MOTION_DOT = .97375E-3
MEAN_MOTION_DDOT = 0

CCSDS_OMM_VERS = 2.0
CREATION_DATE  = 
ORIGINATOR     = 

OBJECT_NAME    = STARLINK-36596
OBJECT_ID      = 2026-022Y
CENTER_NAME    = EARTH
REF_FRAME      = TEME
TIME_SYSTEM    = UTC
MEAN_ELEMENT_THEORY = SGP/SGP4

EPOCH          = 2026-02-23T08:10:39.692352
MEAN_MOTION    = 15.75281858
ECCENTRICITY   = .000256
INCLINATION    = 97.2854
RA_OF_ASC_NODE = 87.6627
ARG_OF_PERICENTER = 117.8062
MEAN_ANOMALY   = 242.3463

EPHEMERIS_TYPE = 0
CLASSIFICATION_TYPE = U
NORAD_CAT_ID   = 67670
ELEMENT_SET_NO = 999
REV_AT_EPOCH   = 329
BSTAR          = .20323E-2
MEAN_MOTION_DOT = .315733E-2
MEAN_MOTION_DDOT = 0

CCSDS_OMM_VERS = 2.0
CREATION_DATE  = 
ORIGINATOR     = 

OBJECT_NAME    = STARLINK-36297
OBJECT_ID      = 2026-022Z
CENTER_NAME    = EARTH
REF_FRAME      = TEME
TIME_SYSTEM    = UTC
MEAN_ELEMENT_THEORY = SGP/SGP4

EPOCH          = 2026-02-23T08:07:36.628032
MEAN_MOTION    = 15.75283804
ECCENTRICITY   = .0002474
INCLINATION    = 97.2856
RA_OF_ASC_NODE = 87.6653
ARG_OF_PERICENTER = 122.1301
MEAN_ANOMALY   = 238.0205

EPHEMERIS_TYPE = 0
CLASSIFICATION_TYPE = U
NORAD_CAT_ID   = 67671
ELEMENT_SET_NO = 999
REV_AT_EPOCH   = 329
BSTAR          = .20674E-2
MEAN_MOTION_DOT = .321435E-2
MEAN_MOTION_DDOT = 0

